{
  "norad_id": 50815,
  "name": "STARLINK-3234",
  "history": [
    {
      "epoch": "2026-03-28T09:31:54.041664",
      "apogee_km": 540.7437671833304,
      "perigee_km": 538.6995399512016,
      "latitude_deg": 52.69468874424198,
      "longitude_deg": 19.62671295995824,
      "semi_major_axis_km": 6917.858653567266,
      "eccentricity": 0.00014775,
      "inclination_deg": 53.2169,
      "raan_deg": 85.1398,
      "arg_perigee_deg": 71.7457,
      "mean_anomaly_deg": 288.3696,
      "mean_motion_rev_day": 15.08847111
    },
    {
      "epoch": "2026-03-29T04:36:31.239936",
      "apogee_km": 540.7515203909306,
      "perigee_km": 538.673398413327,
      "latitude_deg": 53.21342848812615,
      "longitude_deg": 95.93471104023047,
      "semi_major_axis_km": 6917.849459402129,
      "eccentricity": 0.0001502,
      "inclination_deg": 53.2169,
      "raan_deg": 81.5711,
      "arg_perigee_deg": 72.9599,
      "mean_anomaly_deg": 287.1557,
      "mean_motion_rev_day": 15.08850119
    }
  ]
}